CCSDS_OMM_VERS = 2.0
CREATION_DATE  = 
ORIGINATOR     = 

OBJECT_NAME    = STARLINK-35726
OBJECT_ID      = 2025-247R
CENTER_NAME    = EARTH
REF_FRAME      = TEME
TIME_SYSTEM    = UTC
MEAN_ELEMENT_THEORY = SGP/SGP4

EPOCH          = 2025-11-22T20:00:01.999008
MEAN_MOTION    = 15.49282759
ECCENTRICITY   = .0001265
INCLINATION    = 53.1594
RA_OF_ASC_NODE = 331.2889
ARG_OF_PERICENTER = 107.1469
MEAN_ANOMALY   = 265.8545

EPHEMERIS_TYPE = 0
CLASSIFICATION_TYPE = U
NORAD_CAT_ID   = 66280
ELEMENT_SET_NO = 999
REV_AT_EPOCH   = 441
BSTAR          = .99432E-3
MEAN_MOTION_DOT = .55192E-3
MEAN_MOTION_DDOT = 0

CCSDS_OMM_VERS = 2.0
CREATION_DATE  = 
ORIGINATOR     = 

OBJECT_NAME    = STARLINK-35727
OBJECT_ID      = 2025-247S
CENTER_NAME    = EARTH
REF_FRAME      = TEME
TIME_SYSTEM    = UTC
MEAN_ELEMENT_THEORY = SGP/SGP4

EPOCH          = 2025-11-22T20:00:01.999008
MEAN_MOTION    = 15.49247315
ECCENTRICITY   = .0001187
INCLINATION    = 53.1593
RA_OF_ASC_NODE = 331.2766
ARG_OF_PERICENTER = 97.8972
MEAN_ANOMALY   = 280.8761

EPHEMERIS_TYPE = 0
CLASSIFICATION_TYPE = U
NORAD_CAT_ID   = 66281
ELEMENT_SET_NO = 999
REV_AT_EPOCH   = 441
BSTAR          = .15567E-2
MEAN_MOTION_DOT = .86906E-3
MEAN_MOTION_DDOT = 0

CCSDS_OMM_VERS = 2.0
CREATION_DATE  = 
ORIGINATOR     = 

OBJECT_NAME    = STARLINK-35776
OBJECT_ID      = 2025-247T
CENTER_NAME    = EARTH
REF_FRAME      = TEME
TIME_SYSTEM    = UTC
MEAN_ELEMENT_THEORY = SGP/SGP4

EPOCH          = 2025-11-22T20:00:01.999008
MEAN_MOTION    = 15.49248620
ECCENTRICITY   = .0001244
INCLINATION    = 53.1593
RA_OF_ASC_NODE = 331.2725
ARG_OF_PERICENTER = 99.3107
MEAN_ANOMALY   = 281.3751

EPHEMERIS_TYPE = 0
CLASSIFICATION_TYPE = U
NORAD_CAT_ID   = 66282
ELEMENT_SET_NO = 999
REV_AT_EPOCH   = 441
BSTAR          = .15732E-2
MEAN_MOTION_DOT = .87847E-3
MEAN_MOTION_DDOT = 0

CCSDS_OMM_VERS = 2.0
CREATION_DATE  = 
ORIGINATOR     = 

OBJECT_NAME    = STARLINK-35774
OBJECT_ID      = 2025-247U
CENTER_NAME    = EARTH
REF_FRAME      = TEME
TIME_SYSTEM    = UTC
MEAN_ELEMENT_THEORY = SGP/SGP4

EPOCH          = 2025-11-22T20:00:01.999008
MEAN_MOTION    = 15.49209003
ECCENTRICITY   = .0001133
INCLINATION    = 53.1592
RA_OF_ASC_NODE = 331.2691
ARG_OF_PERICENTER = 86.0282
MEAN_ANOMALY   = 296.6343

EPHEMERIS_TYPE = 0
CLASSIFICATION_TYPE = U
NORAD_CAT_ID   = 66283
ELEMENT_SET_NO = 999
REV_AT_EPOCH   = 442
BSTAR          = .18572E-2
MEAN_MOTION_DOT = .103855E-2
MEAN_MOTION_DDOT = 0

CCSDS_OMM_VERS = 2.0
CREATION_DATE  = 
ORIGINATOR     = 

OBJECT_NAME    = STARLINK-35830
OBJECT_ID      = 2025-247V
CENTER_NAME    = EARTH
REF_FRAME      = TEME
TIME_SYSTEM    = UTC
MEAN_ELEMENT_THEORY = SGP/SGP4

EPOCH          = 2025-11-22T20:00:01.999008
MEAN_MOTION    = 15.49248213
ECCENTRICITY   = .0001494
INCLINATION    = 53.1593
RA_OF_ASC_NODE = 331.2645
ARG_OF_PERICENTER = 113.8422
MEAN_ANOMALY   = 270.6700

EPHEMERIS_TYPE = 0
CLASSIFICATION_TYPE = U
NORAD_CAT_ID   = 66284
ELEMENT_SET_NO = 999
REV_AT_EPOCH   = 442
BSTAR          = .18569E-2
MEAN_MOTION_DOT = .103985E-2
MEAN_MOTION_DDOT = 0

CCSDS_OMM_VERS = 2.0
CREATION_DATE  = 
ORIGINATOR     = 

OBJECT_NAME    = STARLINK-35819
OBJECT_ID      = 2025-247W
CENTER_NAME    = EARTH
REF_FRAME      = TEME
TIME_SYSTEM    = UTC
MEAN_ELEMENT_THEORY = SGP/SGP4

EPOCH          = 2025-11-22T20:00:01.999008
MEAN_MOTION    = 15.49344842
ECCENTRICITY   = .0001184
INCLINATION    = 53.1593
RA_OF_ASC_NODE = 331.2606
ARG_OF_PERICENTER = 100.0342
MEAN_ANOMALY   = 286.4039

EPHEMERIS_TYPE = 0
CLASSIFICATION_TYPE = U
NORAD_CAT_ID   = 66285
ELEMENT_SET_NO = 999
REV_AT_EPOCH   = 437
BSTAR          = -.1886E-2
MEAN_MOTION_DOT = -.104089E-2
MEAN_MOTION_DDOT = 0

CCSDS_OMM_VERS = 2.0
CREATION_DATE  = 
ORIGINATOR     = 

OBJECT_NAME    = STARLINK-35783
OBJECT_ID      = 2025-247X
CENTER_NAME    = EARTH
REF_FRAME      = TEME
TIME_SYSTEM    = UTC
MEAN_ELEMENT_THEORY = SGP/SGP4

EPOCH          = 2025-11-22T20:00:01.999008
MEAN_MOTION    = 15.49246433
ECCENTRICITY   = .0001285
INCLINATION    = 53.1593
RA_OF_ASC_NODE = 331.2558
ARG_OF_PERICENTER = 97.1305
MEAN_ANOMALY   = 291.2184

EPHEMERIS_TYPE = 0
CLASSIFICATION_TYPE = U
NORAD_CAT_ID   = 66286
ELEMENT_SET_NO = 999
REV_AT_EPOCH   = 437
BSTAR          = .17475E-2
MEAN_MOTION_DOT = .9775E-3
MEAN_MOTION_DDOT = 0

CCSDS_OMM_VERS = 2.0
CREATION_DATE  = 
ORIGINATOR     = 

OBJECT_NAME    = STARLINK-34884
OBJECT_ID      = 2025-247Y
CENTER_NAME    = EARTH
REF_FRAME      = TEME
TIME_SYSTEM    = UTC
MEAN_ELEMENT_THEORY = SGP/SGP4

EPOCH          = 2025-11-22T20:00:01.999008
MEAN_MOTION    = 15.49244206
ECCENTRICITY   = .0001385
INCLINATION    = 53.1593
RA_OF_ASC_NODE = 331.2526
ARG_OF_PERICENTER = 97.5193
MEAN_ANOMALY   = 292.7615

EPHEMERIS_TYPE = 0
CLASSIFICATION_TYPE = U
NORAD_CAT_ID   = 66287
ELEMENT_SET_NO = 999
REV_AT_EPOCH   = 469
BSTAR          = .16189E-2
MEAN_MOTION_DOT = .90431E-3
MEAN_MOTION_DDOT = 0

CCSDS_OMM_VERS = 2.0
CREATION_DATE  = 
ORIGINATOR     = 

OBJECT_NAME    = STARLINK-34896
OBJECT_ID      = 2025-247Z
CENTER_NAME    = EARTH
REF_FRAME      = TEME
TIME_SYSTEM    = UTC
MEAN_ELEMENT_THEORY = SGP/SGP4

EPOCH          = 2025-11-22T20:00:01.999008
MEAN_MOTION    = 15.49248758
ECCENTRICITY   = .0001299
INCLINATION    = 53.1593
RA_OF_ASC_NODE = 331.2486
ARG_OF_PERICENTER = 96.8734
MEAN_ANOMALY   = 295.3127

EPHEMERIS_TYPE = 0
CLASSIFICATION_TYPE = U
NORAD_CAT_ID   = 66288
ELEMENT_SET_NO = 999
REV_AT_EPOCH   = 469
BSTAR          = .15993E-2
MEAN_MOTION_DOT = .89331E-3
MEAN_MOTION_DDOT = 0

CCSDS_OMM_VERS = 2.0
CREATION_DATE  = 
ORIGINATOR     = 

OBJECT_NAME    = STARLINK-35802
OBJECT_ID      = 2025-247AA
CENTER_NAME    = EARTH
REF_FRAME      = TEME
TIME_SYSTEM    = UTC
MEAN_ELEMENT_THEORY = SGP/SGP4

EPOCH          = 2025-11-22T20:00:01.999008
MEAN_MOTION    = 15.49242043
ECCENTRICITY   = .0001051
INCLINATION    = 53.1593
RA_OF_ASC_NODE = 331.2442
ARG_OF_PERICENTER = 95.1619
MEAN_ANOMALY   = 298.9529

EPHEMERIS_TYPE = 0
CLASSIFICATION_TYPE = U
NORAD_CAT_ID   = 66289
ELEMENT_SET_NO = 999
REV_AT_EPOCH   = 437
BSTAR          = .15823E-2
MEAN_MOTION_DOT = .88345E-3
MEAN_MOTION_DDOT = 0

CCSDS_OMM_VERS = 2.0
CREATION_DATE  = 
ORIGINATOR     = 

OBJECT_NAME    = STARLINK-35799
OBJECT_ID      = 2025-247AB
CENTER_NAME    = EARTH
REF_FRAME      = TEME
TIME_SYSTEM    = UTC
MEAN_ELEMENT_THEORY = SGP/SGP4

EPOCH          = 2025-11-22T20:00:01.999008
MEAN_MOTION    = 15.49250250
ECCENTRICITY   = .0001193
INCLINATION    = 53.1593
RA_OF_ASC_NODE = 331.2403
ARG_OF_PERICENTER = 100.5927
MEAN_ANOMALY   = 295.4270

EPHEMERIS_TYPE = 0
CLASSIFICATION_TYPE = U
NORAD_CAT_ID   = 66290
ELEMENT_SET_NO = 999
REV_AT_EPOCH   = 474
BSTAR          = .15432E-2
MEAN_MOTION_DOT = .86151E-3
MEAN_MOTION_DDOT = 0

CCSDS_OMM_VERS = 2.0
CREATION_DATE  = 
ORIGINATOR     = 

OBJECT_NAME    = STARLINK-35800
OBJECT_ID      = 2025-247AC
CENTER_NAME    = EARTH
REF_FRAME      = TEME
TIME_SYSTEM    = UTC
MEAN_ELEMENT_THEORY = SGP/SGP4

EPOCH          = 2025-11-22T20:00:01.999008
MEAN_MOTION    = 15.49246444
ECCENTRICITY   = .0001269
INCLINATION    = 53.1594
RA_OF_ASC_NODE = 331.2318
ARG_OF_PERICENTER = 100.8834
MEAN_ANOMALY   = 298.9710

EPHEMERIS_TYPE = 0
CLASSIFICATION_TYPE = U
NORAD_CAT_ID   = 66291
ELEMENT_SET_NO = 999
REV_AT_EPOCH   = 474
BSTAR          = .17532E-2
MEAN_MOTION_DOT = .98072E-3
MEAN_MOTION_DDOT = 0

