STARLINK-35726          
1 66280U 25247R   25326.83335647  .00055192  00000+0  99432-3 0  9990
2 66280  53.1594 331.2889 0001265 107.1469 265.8545 15.49282759  4413
STARLINK-35727          
1 66281U 25247S   25326.83335647  .00086906  00000+0  15567-2 0  9994
2 66281  53.1593 331.2766 0001187  97.8972 280.8761 15.49247315  4410
STARLINK-35776          
1 66282U 25247T   25326.83335647  .00087847  00000+0  15732-2 0  9994
2 66282  53.1593 331.2725 0001244  99.3107 281.3751 15.49248620  4412
STARLINK-35774          
1 66283U 25247U   25326.83335647  .00103855  00000+0  18572-2 0  9998
2 66283  53.1592 331.2691 0001133  86.0282 296.6343 15.49209003  4427
STARLINK-35830          
1 66284U 25247V   25326.83335647  .00103985  00000+0  18569-2 0  9999
2 66284  53.1593 331.2645 0001494 113.8422 270.6700 15.49248213  4428
STARLINK-35819          
1 66285U 25247W   25326.83335647 -.00104089  00000+0 -18860-2 0  9992
2 66285  53.1593 331.2606 0001184 100.0342 286.4039 15.49344842  4370
STARLINK-35783          
1 66286U 25247X   25326.83335647  .00097750  00000+0  17475-2 0  9998
2 66286  53.1593 331.2558 0001285  97.1305 291.2184 15.49246433  4376
STARLINK-34884          
1 66287U 25247Y   25326.83335647  .00090431  00000+0  16189-2 0  9999
2 66287  53.1593 331.2526 0001385  97.5193 292.7615 15.49244206  4698
STARLINK-34896          
1 66288U 25247Z   25326.83335647  .00089331  00000+0  15993-2 0  9999
2 66288  53.1593 331.2486 0001299  96.8734 295.3127 15.49248758  4694
STARLINK-35802          
1 66289U 25247AA  25326.83335647  .00088345  00000+0  15823-2 0  9996
2 66289  53.1593 331.2442 0001051  95.1619 298.9529 15.49242043  4378
STARLINK-35799          
1 66290U 25247AB  25326.83335647  .00086151  00000+0  15432-2 0  9997
2 66290  53.1593 331.2403 0001193 100.5927 295.4270 15.49250250  4742
STARLINK-35800          
1 66291U 25247AC  25326.83335647  .00098072  00000+0  17532-2 0  9996
2 66291  53.1594 331.2318 0001269 100.8834 298.9710 15.49246444  4740
